{
  "type": "FeatureCollection",
  "features": [
    {
      "type": "Feature",
      "properties": {
        "norad_id": 40069,
        "name": "METEOR-M 2",
        "group": "weather",
        "lat": 32.768918295522816,
        "lon": 148.92972217626289,
        "alt_km": 817.2359977518363,
        "timestamp": "2025-12-11T18:59:45.708309+00:00",
        "meta_object_name": "METEOR-M 2",
        "meta_object_id": "2014-037A",
        "meta_epoch": "2025-12-11T06:28:53.234112",
        "meta_mean_motion": 14.21386766,
        "meta_eccentricity": 0.0004903,
        "meta_inclination": 98.4903,
        "meta_ra_of_asc_node": 322.9108,
        "meta_arg_of_pericenter": 214.7615,
        "meta_mean_anomaly": 145.3243,
        "meta_ephemeris_type": 0,
        "meta_classification_type": "U",
        "meta_norad_cat_id": 40069,
        "meta_element_set_no": 999,
        "meta_rev_at_epoch": 59262,
        "meta_bstar": 0.00030002553,
        "meta_mean_motion_dot": 6.13e-06,
        "meta_mean_motion_ddot": 0,
        "tle_line1": "1 40069U 14037A   25345.27006058  .00000613  00000+0  30003-3 0  9999",
        "tle_line2": "2 40069  98.4903 322.9108 0004903 214.7615 145.3243 14.21386766592621"
      },
      "geometry": {
        "type": "Point",
        "coordinates": [
          148.92972217626289,
          32.768918295522816
        ]
      }
    },
    {
      "type": "Feature",
      "properties": {
        "norad_id": 40267,
        "name": "HIMAWARI-8",
        "group": "weather",
        "lat": -0.018598403082653144,
        "lon": 146.33008137534873,
        "alt_km": 35791.25376321519,
        "timestamp": "2025-12-11T18:59:45.708322+00:00",
        "meta_object_name": "HIMAWARI-8",
        "meta_object_id": "2014-060A",
        "meta_epoch": "2025-12-11T05:37:15.120192",
        "meta_mean_motion": 1.00270271,
        "meta_eccentricity": 0.00012236,
        "meta_inclination": 0.0351,
        "meta_ra_of_asc_node": 196.4509,
        "meta_arg_of_pericenter": 105.3462,
        "meta_mean_anomaly": 3.3698,
        "meta_ephemeris_type": 0,
        "meta_classification_type": "U",
        "meta_norad_cat_id": 40267,
        "meta_element_set_no": 999,
        "meta_rev_at_epoch": 4087,
        "meta_bstar": 0,
        "meta_mean_motion_dot": -2.69e-06,
        "meta_mean_motion_ddot": 0,
        "tle_line1": "1 40267U 14060A   25345.23420278 -.00000269  00000+0  00000+0 0  9993",
        "tle_line2": "2 40267   0.0351 196.4509 0001223 105.3462   3.3698  1.00270271 40871"
      },
      "geometry": {
        "type": "Point",
        "coordinates": [
          146.33008137534873,
          -0.018598403082653144
        ]
      }
    },
    {
      "type": "Feature",
      "properties": {
        "norad_id": 40367,
        "name": "FENGYUN 2G",
        "group": "weather",
        "lat": 2.606405610969697,
        "lon": 105.12855408369165,
        "alt_km": 35800.62622403076,
        "timestamp": "2025-12-11T18:59:45.708335+00:00",
        "meta_object_name": "FENGYUN 2G",
        "meta_object_id": "2014-090A",
        "meta_epoch": "2025-12-10T20:22:55.693344",
        "meta_mean_motion": 1.00264635,
        "meta_eccentricity": 0.00031271,
        "meta_inclination": 5.1637,
        "meta_ra_of_asc_node": 75.1179,
        "meta_arg_of_pericenter": 194.7733,
        "meta_mean_anomaly": 215.2369,
        "meta_ephemeris_type": 0,
        "meta_classification_type": "U",
        "meta_norad_cat_id": 40367,
        "meta_element_set_no": 999,
        "meta_rev_at_epoch": 4011,
        "meta_bstar": 0,
        "meta_mean_motion_dot": -2.96e-06,
        "meta_mean_motion_ddot": 0,
        "tle_line1": "1 40367U 14090A   25344.84925571 -.00000296  00000+0  00000+0 0  9999",
        "tle_line2": "2 40367   5.1637  75.1179 0003127 194.7733 215.2369  1.00264635 40112"
      },
      "geometry": {
        "type": "Point",
        "coordinates": [
          105.12855408369165,
          2.606405610969697
        ]
      }
    },
    {
      "type": "Feature",
      "properties": {
        "norad_id": 40732,
        "name": "METEOSAT-11 (MSG-4)",
        "group": "weather",
        "lat": -2.2822923023340884,
        "lon": 15.022051975494533,
        "alt_km": 35791.65005330315,
        "timestamp": "2025-12-11T18:59:45.708347+00:00",
        "meta_object_name": "METEOSAT-11 (MSG-4)",
        "meta_object_id": "2015-034A",
        "meta_epoch": "2025-12-11T04:59:33.728928",
        "meta_mean_motion": 1.00267015,
        "meta_eccentricity": 9.465e-05,
        "meta_inclination": 2.7315,
        "meta_ra_of_asc_node": 72.0057,
        "meta_arg_of_pericenter": 124.5533,
        "meta_mean_anomaly": 327.8196,
        "meta_ephemeris_type": 0,
        "meta_classification_type": "U",
        "meta_norad_cat_id": 40732,
        "meta_element_set_no": 999,
        "meta_rev_at_epoch": 533,
        "meta_bstar": 0,
        "meta_mean_motion_dot": 6.7e-07,
        "meta_mean_motion_ddot": 0,
        "tle_line1": "1 40732U 15034A   25345.20802927  .00000067  00000+0  00000+0 0  9999",
        "tle_line2": "2 40732   2.7315  72.0057 0000946 124.5533 327.8196  1.00267015  5338"
      },
      "geometry": {
        "type": "Point",
        "coordinates": [
          15.022051975494533,
          -2.2822923023340884
        ]
      }
    },
    {
      "type": "Feature",
      "properties": {
        "norad_id": 41105,
        "name": "ELEKTRO-L 2",
        "group": "weather",
        "lat": -6.156959780656159,
        "lon": -8.71658835838479,
        "alt_km": 35783.63946295656,
        "timestamp": "2025-12-11T18:59:45.708360+00:00",
        "meta_object_name": "ELEKTRO-L 2",
        "meta_object_id": "2015-074A",
        "meta_epoch": "2025-12-11T02:11:38.541984",
        "meta_mean_motion": 1.00272182,
        "meta_eccentricity": 0.00038781,
        "meta_inclination": 6.222,
        "meta_ra_of_asc_node": 72.8471,
        "meta_arg_of_pericenter": 199.5378,
        "meta_mean_anomaly": 186.0824,
        "meta_ephemeris_type": 0,
        "meta_classification_type": "U",
        "meta_norad_cat_id": 41105,
        "meta_element_set_no": 999,
        "meta_rev_at_epoch": 3662,
        "meta_bstar": 0,
        "meta_mean_motion_dot": -1.12e-06,
        "meta_mean_motion_ddot": 0,
        "tle_line1": "1 41105U 15074A   25345.09141831 -.00000112  00000+0  00000+0 0  9997",
        "tle_line2": "2 41105   6.2220  72.8471 0003878 199.5378 186.0824  1.00272182 36621"
      },
      "geometry": {
        "type": "Point",
        "coordinates": [
          -8.71658835838479,
          -6.156959780656159
        ]
      }
    },
    {
      "type": "Feature",
      "properties": {
        "norad_id": 41752,
        "name": "INSAT-3DR",
        "group": "weather",
        "lat": 0.008628326261369647,
        "lon": 79.71307267718858,
        "alt_km": 35846.417008357756,
        "timestamp": "2025-12-11T18:59:45.708372+00:00",
        "meta_object_name": "INSAT-3DR",
        "meta_object_id": "2016-054A",
        "meta_epoch": "2025-12-11T03:35:26.786112",
        "meta_mean_motion": 1.00270645,
        "meta_eccentricity": 0.00144362,
        "meta_inclination": 0.088,
        "meta_ra_of_asc_node": 86.584,
        "meta_arg_of_pericenter": 183.936,
        "meta_mean_anomaly": 297.4576,
        "meta_ephemeris_type": 0,
        "meta_classification_type": "U",
        "meta_norad_cat_id": 41752,
        "meta_element_set_no": 999,
        "meta_rev_at_epoch": 3393,
        "meta_bstar": 0,
        "meta_mean_motion_dot": -7.1e-07,
        "meta_mean_motion_ddot": 0,
        "tle_line1": "1 41752U 16054A   25345.14961558 -.00000071  00000+0  00000+0 0  9990",
        "tle_line2": "2 41752   0.0880  86.5840 0014436 183.9360 297.4576  1.00270645 33939"
      },
      "geometry": {
        "type": "Point",
        "coordinates": [
          79.71307267718858,
          0.008628326261369647
        ]
      }
    },
    {
      "type": "Feature",
      "properties": {
        "norad_id": 41836,
        "name": "HIMAWARI-9",
        "group": "weather",
        "lat": 0.02592282731780664,
        "lon": 146.44539408999432,
        "alt_km": 35789.050583141056,
        "timestamp": "2025-12-11T18:59:45.708385+00:00",
        "meta_object_name": "HIMAWARI-9",
        "meta_object_id": "2016-064A",
        "meta_epoch": "2025-12-11T05:37:15.120192",
        "meta_mean_motion": 1.0027103,
        "meta_eccentricity": 0.00011375,
        "meta_inclination": 0.0321,
        "meta_ra_of_asc_node": 90.0748,
        "meta_arg_of_pericenter": 180.5898,
        "meta_mean_anomaly": 34.621,
        "meta_ephemeris_type": 0,
        "meta_classification_type": "U",
        "meta_norad_cat_id": 41836,
        "meta_element_set_no": 999,
        "meta_rev_at_epoch": 3332,
        "meta_bstar": 0,
        "meta_mean_motion_dot": -2.69e-06,
        "meta_mean_motion_ddot": 0,
        "tle_line1": "1 41836U 16064A   25345.23420278 -.00000269  00000+0  00000+0 0  9992",
        "tle_line2": "2 41836   0.0321  90.0748 0001137 180.5898  34.6210  1.00271030 33320"
      },
      "geometry": {
        "type": "Point",
        "coordinates": [
          146.44539408999432,
          0.02592282731780664
        ]
      }
    }
  ]
}